{
    "links": {
        "self": "http://www.neowsapp.com/rest/v1/neo/3388318?api_key=iIulBulltgU6a56xZRHN4H3l9WmuAYTsLGpBGhQ2"
    },
    "id": "3388318",
    "neo_reference_id": "3388318",
    "name": "(2007 TX24)",
    "designation": "2007 TX24",
    "nasa_jpl_url": "http://ssd.jpl.nasa.gov/sbdb.cgi?sstr=3388318",
    "absolute_magnitude_h": 24.9,
    "estimated_diameter": {
        "kilometers": {
            "estimated_diameter_min": 0.0278326768,
            "estimated_diameter_max": 0.0622357573
        },
        "meters": {
            "estimated_diameter_min": 27.8326768072,
            "estimated_diameter_max": 62.2357573367
        },
        "miles": {
            "estimated_diameter_min": 0.0172944182,
            "estimated_diameter_max": 0.0386714948
        },
        "feet": {
            "estimated_diameter_min": 91.3145593761,
            "estimated_diameter_max": 204.1855621004
        }
    },
    "is_potentially_hazardous_asteroid": false,
    "close_approach_data": [
        {
            "close_approach_date": "2007-10-06",
            "close_approach_date_full": "2007-Oct-06 11:17",
            "epoch_date_close_approach": 1191669420000,
            "relative_velocity": {
                "kilometers_per_second": "7.4959792304",
                "kilometers_per_hour": "26985.525229448",
                "miles_per_hour": "16767.7559404867"
            },
            "miss_distance": {
                "astronomical": "0.0784457405",
                "lunar": "30.5153930545",
                "kilometers": "11735315.689372735",
                "miles": "7291987.035444343"
            },
            "orbiting_body": "Earth"
        }
    ],
    "orbital_data": {
        "orbit_id": "11",
        "orbit_determination_date": "2017-04-06 09:05:43",
        "first_observation_date": "2007-10-11",
        "last_observation_date": "2007-11-10",
        "data_arc_in_days": 30,
        "observations_used": 36,
        "orbit_uncertainty": "7",
        "minimum_orbit_intersection": ".0721652",
        "jupiter_tisserand_invariant": "3.363",
        "epoch_osculation": "2459000.5",
        "eccentricity": ".5379622472117085",
        "semi_major_axis": "2.311772485095947",
        "inclination": "8.215448431959636",
        "ascending_node_longitude": "200.0942310636885",
        "orbital_period": "1283.855253327549",
        "perihelion_distance": "1.068126163971536",
        "perihelion_argument": "169.289862593815",
        "aphelion_distance": "3.555418806220359",
        "perihelion_time": "2459520.442487937651",
        "mean_anomaly": "214.2052967634668",
        "mean_motion": ".2804054421765514",
        "equinox": "J2000",
        "orbit_class": {
            "orbit_class_type": "AMO",
            "orbit_class_description": "Near-Earth asteroid orbits similar to that of 1221 Amor",
            "orbit_class_range": "1.017 AU < q (perihelion) < 1.3 AU"
        }
    },
    "is_sentry_object": false
}